{
    "links": {
        "self": "http://www.neowsapp.com/rest/v1/neo/3536556?api_key=iIulBulltgU6a56xZRHN4H3l9WmuAYTsLGpBGhQ2"
    },
    "id": "3536556",
    "neo_reference_id": "3536556",
    "name": "(2010 NG)",
    "designation": "2010 NG",
    "nasa_jpl_url": "http://ssd.jpl.nasa.gov/sbdb.cgi?sstr=3536556",
    "absolute_magnitude_h": 25.1,
    "estimated_diameter": {
        "kilometers": {
            "estimated_diameter_min": 0.0253837029,
            "estimated_diameter_max": 0.0567596853
        },
        "meters": {
            "estimated_diameter_min": 25.3837029364,
            "estimated_diameter_max": 56.7596852866
        },
        "miles": {
            "estimated_diameter_min": 0.0157726969,
            "estimated_diameter_max": 0.0352688224
        },
        "feet": {
            "estimated_diameter_min": 83.279867942,
            "estimated_diameter_max": 186.2194458756
        }
    },
    "is_potentially_hazardous_asteroid": false,
    "close_approach_data": [
        {
            "close_approach_date": "2010-07-13",
            "close_approach_date_full": "2010-Jul-13 02:39",
            "epoch_date_close_approach": 1278988740000,
            "relative_velocity": {
                "kilometers_per_second": "7.199868025",
                "kilometers_per_hour": "25919.5248899847",
                "miles_per_hour": "16105.384785113"
            },
            "miss_distance": {
                "astronomical": "0.0147468494",
                "lunar": "5.7365244166",
                "kilometers": "2206097.259450778",
                "miles": "1370805.2719376164"
            },
            "orbiting_body": "Earth"
        }
    ],
    "orbital_data": {
        "orbit_id": "10",
        "orbit_determination_date": "2017-04-06 08:57:09",
        "first_observation_date": "2010-07-04",
        "last_observation_date": "2010-07-10",
        "data_arc_in_days": 6,
        "observations_used": 48,
        "orbit_uncertainty": "7",
        "minimum_orbit_intersection": ".0148636",
        "jupiter_tisserand_invariant": "4.402",
        "epoch_osculation": "2459000.5",
        "eccentricity": ".344418241305585",
        "semi_major_axis": "1.533525184127898",
        "inclination": "8.295327070194404",
        "ascending_node_longitude": "106.5691749232338",
        "orbital_period": "693.6410638611136",
        "perihelion_distance": "1.005351137212744",
        "perihelion_argument": "207.4777819328587",
        "aphelion_distance": "2.061699231043052",
        "perihelion_time": "2458880.021872059218",
        "mean_anomaly": "62.52819839882743",
        "mean_motion": ".5190004149928501",
        "equinox": "J2000",
        "orbit_class": {
            "orbit_class_type": "APO",
            "orbit_class_description": "Near-Earth asteroid orbits which cross the Earth’s orbit similar to that of 1862 Apollo",
            "orbit_class_range": "a (semi-major axis) > 1.0 AU; q (perihelion) < 1.017 AU"
        }
    },
    "is_sentry_object": false
}